NORAD_CAT_ID,OBJECT_NAME,OBJECT_TYPE,EPOCH,MEAN_MOTION,ECCENTRICITY,INCLINATION,RA_OF_ASC_NODE,ARG_OF_PERICENTER,MEAN_ANOMALY,BSTAR,MEAN_MOTION_DOT,MEAN_MOTION_DDOT,TLE_LINE0,TLE_LINE1,TLE_LINE2,SEMIMAJOR_AXIS,PERIOD,APOGEE,PERIGEE,DECAYED
52582.0,STARLINK-3886,PAYLOAD,2023-03-28 11:39:09,15.08868869,0.0001947,53.2139,274.8799,78.1972,281.9239,0.00051679,7.953e-05,0.0,0 STARLINK-3886,1 52582U 22051AY  23087.48552305  .00007953  00000-0  51679-3 0  9999,2 52582  53.2139 274.8799 0001947  78.1972 281.9239 15.08868869 48968,6917.792,95.436,541.004,538.31,0.0
52582.0,STARLINK-3886,PAYLOAD,2023-03-28 16:25:18,15.08848053,9.19e-05,53.2138,273.9881,79.3891,280.7204,0.0008169,0.0001274,0.0,0 STARLINK-3886,1 52582U 22051AY  23087.68424278  .00012740  00000-0  81690-3 0  9994,2 52582  53.2138 273.9881 0000919  79.3891 280.7204 15.08848053 49064,6917.856,95.437,540.357,539.085,0.0
52582.0,STARLINK-3886,PAYLOAD,2023-03-28 19:36:04,15.08850046,8.36e-05,53.2137,273.3935,79.2983,280.8103,0.0013789,0.00021731,0.0,0 STARLINK-3886,1 52582U 22051AY  23087.81672186  .00021731  00000-0  13789-2 0  9995,2 52582  53.2137 273.3935 0000836  79.2983 280.8103 15.08850046 49015,6917.85,95.437,540.293,539.136,0.0
52582.0,STARLINK-3886,PAYLOAD,2023-03-29 05:08:23,15.08846227,7.43e-05,53.2134,271.6102,84.9992,275.1085,0.00064994,0.00010073,0.0,0 STARLINK-3886,1 52582U 22051AY  23088.21416134  .00010073  00000-0  64994-3 0  9991,2 52582  53.2134 271.6102 0000743  84.9992 275.1085 15.08846227 49145,6917.861,95.437,540.24,539.212,0.0
52582.0,STARLINK-3886,PAYLOAD,2023-03-29 11:29:56,15.08844219,9.5e-05,53.2146,270.4215,90.2427,269.8674,0.00034969,5.283e-05,0.0,0 STARLINK-3886,1 52582U 22051AY  23088.47912177  .00005283  00000-0  34969-3 0  9993,2 52582  53.2146 270.4215 0000950  90.2427 269.8674 15.08844219 49113,6917.867,95.437,540.39,539.075,0.0
52582.0,STARLINK-3886,PAYLOAD,2023-03-29 19:26:51,15.08850675,9.9e-05,53.2149,268.9342,88.0332,272.0774,0.00019617,2.837e-05,0.0,0 STARLINK-3886,1 52582U 22051AY  23088.81031936  .00002837  00000-0  19617-3 0  9991,2 52582  53.2149 268.9342 0000990  88.0332 272.0774 15.08850675 49168,6917.848,95.437,540.398,539.028,0.0
52582.0,STARLINK-3886,PAYLOAD,2023-03-30 04:59:10,15.08844856,0.0001107,53.2144,267.1504,81.9919,278.1198,0.00018789,2.704e-05,0.0,0 STARLINK-3886,1 52582U 22051AY  23089.20776138  .00002704  00000-0  18789-3 0  9997,2 52582  53.2144 267.1504 0001107  81.9919 278.1198 15.08844856 49293,6917.866,95.437,540.496,538.965,0.0
52582.0,STARLINK-3886,PAYLOAD,2023-03-30 19:17:39,15.08842755,0.0001252,53.2142,264.4735,77.0787,283.0345,0.00017248,2.458e-05,0.0,0 STARLINK-3886,1 52582U 22051AY  23089.80392452  .00002458  00000-0  17248-3 0  9991,2 52582  53.2142 264.4735 0001252  77.0787 283.0345 15.08842755 49315,6917.872,95.437,540.603,538.871,0.0
52582.0,STARLINK-3886,PAYLOAD,2023-03-31 04:49:57,15.08845154,0.0001328,53.2147,262.6898,76.6922,283.4218,0.00022417,3.282e-05,0.0,0 STARLINK-3886,1 52582U 22051AY  23090.20136434  .00003282  00000-0  22417-3 0  9993,2 52582  53.2147 262.6898 0001328  76.6922 283.4218 15.08845154 49443,6917.865,95.437,540.648,538.811,0.0
52582.0,STARLINK-3886,PAYLOAD,2023-04-01 04:40:44,15.08843503,0.0001132,53.2132,258.2301,71.2027,288.9087,0.00016582,2.352e-05,0.0,0 STARLINK-3886,1 52582U 22051AY  23091.19496385  .00002352  00000-0  16582-3 0  9999,2 52582  53.2132 258.2301 0001132  71.2027 288.9087 15.08843503 49593,6917.87,95.437,540.518,538.952,0.0
52582.0,STARLINK-3886,PAYLOAD,2023-04-01 11:02:17,15.08833623,0.000187,53.2131,257.0396,80.8311,279.2893,4.3206e-05,3.99e-06,0.0,0 STARLINK-3886,1 52582U 22051AY  23091.45993046  .00000399  00000-0  43206-4 0  9997,2 52582  53.2131 257.0396 0001870  80.8311 279.2893 15.08833623 49561,6917.9,95.438,541.059,538.471,0.0
52582.0,STARLINK-3886,PAYLOAD,2023-04-01 14:13:04,15.08828557,0.0001571,53.2138,256.4444,84.2587,275.8584,-7.7101e-05,-1.514e-05,0.0,0 STARLINK-3886,1 52582U 22051AY  23091.59241202 -.00001514  00000-0 -77101-4 0  9995,2 52582  53.2138 256.4444 0001571  84.2587 275.8584 15.08828557 49655,6917.915,95.438,540.867,538.694,0.0
52582.0,STARLINK-3886,PAYLOAD,2023-04-01 17:23:50,15.08829729,0.0001402,53.2148,255.8497,78.875,281.2399,-8.8254e-05,-1.692e-05,0.0,0 STARLINK-3886,1 52582U 22051AY  23091.72489280 -.00001692  00000-0 -88254-4 0  9998,2 52582  53.2148 255.8497 0001402  78.8750 281.2399 15.08829729 49603,6917.912,95.438,540.747,538.807,0.0
52582.0,STARLINK-3886,PAYLOAD,2023-04-02 14:03:51,15.08844165,0.00013,53.2129,251.9823,91.7687,268.3454,0.00029314,4.381e-05,0.0,0 STARLINK-3886,1 52582U 22051AY  23092.58601085  .00004381  00000-0  29314-3 0  9999,2 52582  53.2129 251.9823 0001300  91.7687 268.3454 15.08844165 49803,6917.868,95.437,540.632,538.833,0.0
52582.0,STARLINK-3886,PAYLOAD,2023-04-02 17:14:37,15.0884867,0.0001251,53.2144,251.388,92.2159,267.8977,0.00074702,0.00011624,0.0,0 STARLINK-3886,1 52582U 22051AY  23092.71849231  .00011624  00000-0  74702-3 0  9990,2 52582  53.2144 251.3880 0001251  92.2159 267.8977 15.08848670 49755,6917.854,95.437,540.584,538.853,0.0
52582.0,STARLINK-3886,PAYLOAD,2023-04-03 10:43:52,15.08850389,0.0001347,53.2143,248.1176,84.8493,275.2652,0.00038551,5.855e-05,0.0,0 STARLINK-3886,1 52582U 22051AY  23093.44713062  .00005855  00000-0  38551-3 0  9994,2 52582  53.2143 248.1176 0001347  84.8493 275.2652 15.08850389 49865,6917.849,95.437,540.645,538.782,0.0
52582.0,STARLINK-3886,PAYLOAD,2023-04-03 17:05:24,15.08850693,0.0001371,53.2144,246.9287,79.9792,280.1354,0.00030935,4.64e-05,0.0,0 STARLINK-3886,1 52582U 22051AY  23093.71208951  .00004640  00000-0  30935-3 0  9999,2 52582  53.2144 246.9287 0001371  79.9792 280.1354 15.08850693 49973,6917.848,95.437,540.661,538.764,0.0
52582.0,STARLINK-3886,PAYLOAD,2023-04-04 10:34:38,15.0884299,0.0001124,53.2135,243.6566,72.4993,287.6122,2.7438e-05,1.49e-06,0.0,0 STARLINK-3886,1 52582U 22051AY  23094.44072912  .00000149  00000-0  27438-4 0  9991,2 52582  53.2135 243.6566 0001124  72.4993 287.6122 15.08842990 50084,6917.871,95.437,540.514,538.959,0.0
52582.0,STARLINK-3886,PAYLOAD,2023-04-05 13:36:12,15.0883543,0.0001163,53.2159,238.6007,82.5221,277.5903,-1.5843e-05,-5.4e-06,0.0,0 STARLINK-3886,1 52582U 22051AY  23095.56681435 -.00000540  00000-0 -15843-4 0  9995,2 52582  53.2159 238.6007 0001163  82.5221 277.5903 15.08835430 50180,6917.894,95.438,540.564,538.955,0.0
52582.0,STARLINK-3886,PAYLOAD,2023-04-05 15:11:35,15.0883653,0.0001132,53.2137,238.3032,68.5615,291.5498,-6.0203e-06,-3.84e-06,0.0,0 STARLINK-3886,1 52582U 22051AY  23095.63305397 -.00000384  00000-0 -60203-5 0  9990,2 52582  53.2137 238.3032 0001132  68.5615 291.5498 15.08836530 50264,6917.891,95.438,540.539,538.973,0.0
52582.0,STARLINK-3886,PAYLOAD,2023-04-05 16:46:58,15.08837074,0.000108,53.2138,238.0049,73.4996,286.6115,-1.0639e-05,-4.57e-06,0.0,0 STARLINK-3886,1 52582U 22051AY  23095.69929340 -.00000457  00000-0 -10639-4 0  9994,2 52582  53.2138 238.0049 0001080  73.4996 286.6115 15.08837074 50208,6917.889,95.438,540.501,539.007,0.0
52582.0,STARLINK-3886,PAYLOAD,2023-04-06 10:16:13,15.0883662,0.0001086,53.2152,234.7344,78.5415,281.5699,9.2394e-05,1.183e-05,0.0,0 STARLINK-3886,1 52582U 22051AY  23096.42793748  .00001183  00000-0  92394-4 0  9990,2 52582  53.2152 234.7344 0001086  78.5415 281.5699 15.08836620 50312,6917.891,95.438,540.507,539.004,0.0
52582.0,STARLINK-3886,PAYLOAD,2023-04-06 18:13:08,15.08845571,0.000125,53.2153,233.2475,90.1153,269.9982,0.00019131,2.759e-05,0.0,0 STARLINK-3886,1 52582U 22051AY  23096.75912962  .00002759  00000-0  19131-3 0  9994,2 52582  53.2153 233.2475 0001250  90.1153 269.9982 15.08845571 50437,6917.863,95.437,540.593,538.864,0.0
52582.0,STARLINK-3886,PAYLOAD,2023-04-07 02:10:04,15.08839412,0.0001071,53.2154,231.761,87.9085,272.2029,9.9949e-05,1.303e-05,0.0,0 STARLINK-3886,1 52582U 22051AY  23097.09033351  .00001303  00000-0  99949-4 0  9998,2 52582  53.2154 231.7610 0001071  87.9085 272.2029 15.08839412 50482,6917.882,95.438,540.488,539.006,0.0
52582.0,STARLINK-3886,PAYLOAD,2023-04-07 10:07:00,15.08838031,0.0001286,53.2149,230.2738,87.786,272.328,7.1114e-05,8.44e-06,0.0,0 STARLINK-3886,1 52582U 22051AY  23097.42153562  .00000844  00000-0  71114-4 0  9995,2 52582  53.2149 230.2738 0001286  87.7860 272.3280 15.08838031 50462,6917.886,95.438,540.641,538.862,0.0
52582.0,STARLINK-3886,PAYLOAD,2023-04-08 13:08:33,15.08841561,0.0001499,53.2153,225.2186,82.7226,277.3937,-1.9455e-05,-5.98e-06,0.0,0 STARLINK-3886,1 52582U 22051AY  23098.54761490 -.00000598  00000-0 -19455-4 0  9992,2 52582  53.2153 225.2186 0001499  82.7226 277.3937 15.08841561 50708,6917.876,95.437,540.778,538.704,0.0
52582.0,STARLINK-3886,PAYLOAD,2023-04-09 11:23:57,15.08869574,0.0001829,53.2149,221.0573,74.2462,285.8732,-0.00048635,-8.027e-05,0.0,0 STARLINK-3886,1 52582U 22051AY  23099.47496867 -.00008027  00000-0 -48635-3 0  9994,2 52582  53.2149 221.0573 0001829  74.2462 285.8732 15.08869574 50770,6917.79,95.436,540.92,538.39,0.0
52582.0,STARLINK-3886,PAYLOAD,2023-04-09 14:34:44,15.08845284,0.0001588,53.2153,220.4625,81.8104,278.3068,-0.0001051,-1.961e-05,0.0,0 STARLINK-3886,1 52582U 22051AY  23099.60745817 -.00001961  00000-0 -10510-3 0  9992,2 52582  53.2153 220.4625 0001588  81.8104 278.3068 15.08845284 50866,6917.864,95.437,540.828,538.631,0.0
52582.0,STARLINK-3886,PAYLOAD,2023-04-10 08:03:58,15.0883432,0.0001571,53.2155,217.1907,82.5273,277.5898,0.00022399,3.278e-05,0.0,0 STARLINK-3886,1 52582U 22051AY  23100.33609834  .00003278  00000-0  22399-3 0  9992,2 52582  53.2155 217.1907 0001571  82.5273 277.5898 15.08834320 50907,6917.898,95.438,540.85,538.676,0.0
52582.0,STARLINK-3886,PAYLOAD,2023-04-11 11:05:30,15.0888537,0.0001548,53.2153,212.1334,83.9382,276.1787,-0.00054451,-8.954e-05,0.0,0 STARLINK-3886,1 52582U 22051AY  23101.46215828 -.00008954  00000-0 -54451-3 0  9995,2 52582  53.2153 212.1334 0001548  83.9382 276.1787 15.08885370 51144,6917.742,95.435,540.678,538.536,0.0
